AEROCUBE 6B             
1 40046U 14033AN  26068.42625992  .00007941  00000+0  66368-3 0  9998
2 40046  97.7129 236.1645 0037452 343.2300  16.7681 14.98232474631816
STARLINK-34749          
1 65675U 25211Z   26068.66688419  .00001266  00000+0  91968-4 0  9991
2 65675  97.6041 114.1235 0000993 160.2549 199.8716 15.05648009 27045
